1 44928U 20001Q   23290.05369315  .00020943  00000-0  14195-2 0  9998
2 44928  53.0537 313.0155 0001396  96.0586 264.0562 15.06431558208028
1 44928U 20001Q   23290.45177590  .00001930  00000-0  14844-3 0  9991
2 44928  53.0552 311.2292 0001411 101.3464 258.7683 15.06404513208081
1 44928U 20001Q   23290.45177590  .00001930  00000-0  14844-3 0  9991
2 44928  53.0552 311.2292 0001411 101.3464 258.7683 15.06404513208081
1 44928U 20001Q   23290.78350817  .00008245  00000-0  57157-3 0  9992
2 44928  53.0556 309.7383 0001311 101.7314 258.3822 15.06410236208131
1 44928U 20001Q   23291.44696436  .00019018  00000-0  12909-2 0  9991
2 44928  53.0540 306.7595 0001243  93.6688 266.4443 15.06437086208235
1 44928U 20001Q   23292.17678105  .00005356  00000-0  37804-3 0  9997
2 44928  53.0561 303.4822 0001138  94.4134 265.6985 15.06411121208349
1 44928U 20001Q   23292.30947392  .00001737  00000-0  13544-3 0  9993
2 44928  53.0556 302.8859 0001524 118.2959 241.8184 15.06408789208360
1 44928U 20001Q   23293.17191697  .00144098  00000-0  94175-2 0  9994
2 44928  53.0552 299.0156 0004886 130.3384 229.8033 15.06707151208492
1 44928U 20001Q   23293.30448148  .00249636  00000-0  15944-1 0  9995
2 44928  53.0559 298.4160 0001394 115.7441 244.3692 15.06976661208519
1 44928U 20001Q   23293.56968705  .00307481  00000-0  19326-1 0  9990
2 44928  53.0561 297.2229 0002092 108.7026 251.4190 15.07257486208556
1 44928U 20001Q   23293.91667824  .01416403  00000-0  81203-1 0  9996
2 44928  53.0543 295.6633 0001490 112.9849 332.4660 15.08936082208603
1 44928U 20001Q   23294.58334491  .01347686  00000-0  73989-1 0  9999
2 44928  53.0538 292.6564 0001404 106.5784   4.4071 15.10680809  5792
1 44928U 20001Q   23294.58334491  .01347686  00000-0  73989-1 0  9999
2 44928  53.0538 292.6564 0001404 106.5784   4.4071 15.10680809208708
1 44928U 20001Q   23295.00001157  .01382013  00000-0  73530-1 0  9992
2 44928  53.0541 290.7709 0001431 111.0043 108.0420 15.11741050  5858
1 44928U 20001Q   23295.58334491  .01341553  00000-0  68619-1 0  9991
2 44928  53.0533 288.1286 0001328 106.6022  50.4269 15.13254408  5794
1 44928U 20001Q   23295.91667824  .01398494  00000-0  69636-1 0  9993
2 44928  53.0533 286.6142 0001398 113.7418  60.7027 15.14087825208905
1 44928U 20001Q   23296.00002315  .01374087  00000-0  68091-1 0  9998
2 44928  53.0534 286.2358 0001481 109.1707 159.8440 15.14315856  5850
1 44928U 20001Q   23296.58335648  .01332057  00000-0  63424-1 0  9995
2 44928  53.0525 283.5828 0001291 104.6178 107.7878 15.15829242209003
1 44928U 20001Q   23296.91667824  .01398667  00000-0  64778-1 0  9998
2 44928  53.0525 282.0624 0001410 110.4748 122.3740 15.16658952  5804
1 44928U 20001Q   23297.58334491  .01322075  00000-0  58539-1 0  9991
2 44928  53.0518 279.0189 0001382 102.7890 174.1369 15.18403779  5807
1 44928U 20001Q   23297.66668981  .01343173  00000-0  59053-1 0  9998
2 44928  53.0519 278.6371 0001543 108.3800 264.4158 15.18605458  5816
1 44928U 20001Q   23298.66670139  .01350407  00000-0  55097-1 0  9999
2 44928  53.0513 274.0532 0001475 114.0044 333.4826 15.21173912  5769
1 44928U 20001Q   23298.66670139  .01350407  00000-0  55097-1 0  9999
2 44928  53.0513 274.0532 0001475 114.0044 333.4826 15.21173912209327
1 44928U 20001Q   23299.58334491  .01320565  00000-0  50352-1 0  9990
2 44928  53.0507 269.8359 0001374 105.3443 328.5612 15.23545432  5844
1 44928U 20001Q   23299.66667824  .01356599  00000-0  51311-1 0  9990
2 44928  53.0509 269.4512 0001236 104.9638  66.2949 15.23741830  5806
1 44928U 20001Q   23299.66667824  .01356599  00000-0  51311-1 0  9990
2 44928  53.0509 269.4512 0001236 104.9638  66.2949 15.23741830209475
1 44928U 20001Q   23303.16717492  .00441823  00000-0  13295-1 0  9991
2 44928  53.0501 253.1995 0001487 100.4813 259.6355 15.32010760210007
1 44928U 20001Q   23303.83334491  .00030468  00000-0  98483-3 0  9992
2 44928  53.0508 250.0894 0001351 106.6318 329.4015 15.31851917  5744
1 44928U 20001Q   23303.83334491  .00030468  00000-0  98483-3 0  9992
2 44928  53.0508 250.0894 0001351 106.6318 329.4015 15.31851917210102
1 44928U 20001Q   23304.58334491 -.00018187  00000-0 -57260-3 0  9999
2 44928  53.0511 246.5886 0001232  96.7841 157.6292 15.31869136  5860
1 44928U 20001Q   23304.58334491 -.00018187  00000-0 -57260-3 0  9999
2 44928  53.0511 246.5886 0001232  96.7841 157.6292 15.31869136210228
1 44928U 20001Q   23304.91668981 -.00000691  00000-0 -10417-4 0  9995
2 44928  53.0512 245.0325 0001298 100.5336 193.2011 15.31872541  5812
1 44928U 20001Q   23305.58335648  .00006939  00000-0  23391-3 0  9993
2 44928  53.0512 241.9203 0001225  95.6194 276.6894 15.31870051  5750
1 44928U 20001Q   23305.58335648  .00006939  00000-0  23391-3 0  9993
2 44928  53.0512 241.9203 0001225  95.6194 276.6894 15.31870051210376
1 44928U 20001Q   23305.91667824 -.00034350  00000-0 -10932-2 0  9990
2 44928  53.0513 240.3644 0001276  96.5896 314.9371 15.31900583  5804
1 44928U 20001Q   23306.58334491  .00012023  00000-0  39653-3 0  9998
2 44928  53.0515 237.2519 0001226  99.9629  30.1633 15.31865011  5857
1 44928U 20001Q   23306.91668981 -.00025876  00000-0 -81971-3 0  9991
2 44928  53.0516 235.6960 0001340  98.9846  70.4746 15.31900163  5767
1 44928U 20001Q   23306.91668981 -.00025876  00000-0 -81971-3 0  9991
2 44928  53.0516 235.6960 0001340  98.9846  70.4746 15.31900163210585
1 44928U 20001Q   23307.08174040 -.00000918  00000-0 -17690-4 0  9996
2 44928  53.0520 234.9249 0001159  93.3806 266.7327 15.31856269210611
1 44928U 20001Q   23307.08174040 -.00000918  00000-0 -17690-4 0  9996
2 44928  53.0520 234.9249 0001159  93.3806 266.7327 15.31856269210600
1 44928U 20001Q   23307.79941254  .00009835  00000-0  32648-3 0  9997
2 44928  53.0526 231.5737 0001134  90.0087 270.1042 15.31874453210720
1 44928U 20001Q   23307.79941254  .00009835  00000-0  32648-3 0  9997
2 44928  53.0526 231.5737 0001134  90.0087 270.1042 15.31874453210719
1 44928U 20001Q   23308.19086365  .00016532  00000-0  54001-3 0  9994
2 44928  53.0523 229.7472 0001177  92.8810 267.2324 15.31895126210778
1 44928U 20001Q   23308.51706915  .00017162  00000-0  55983-3 0  9990
2 44928  53.0525 228.2243 0001211  94.9169 265.1969 15.31910046210837
1 44928U 20001Q   23309.16948285  .00002804  00000-0  10148-3 0  9991
2 44928  53.0524 225.1791 0001320  90.9788 269.1363 15.31904066210921
1 44928U 20001Q   23309.49569275  .00004327  00000-0  15020-3 0  9991
2 44928  53.0518 223.6552 0001402  92.1711 267.9449 15.31900273210986
1 44928U 20001Q   23309.95238968  .00009776  00000-0  32436-3 0  9997
2 44928  53.0527 221.5238 0001238  96.7572 263.3569 15.31897586211050
1 44928U 20001Q   23310.14811680  .00012814  00000-0  42138-3 0  9995
2 44928  53.0526 220.6104 0001366  90.7400 269.3757 15.31897862211071
1 44928U 20001Q   23310.47432871  .00008575  00000-0  28607-3 0  9996
2 44928  53.0525 219.0876 0001333  80.6200 279.4951 15.31891518211135
1 44928U 20001Q   23310.47432871  .00008575  00000-0  28607-3 0  9996
2 44928  53.0525 219.0876 0001333  80.6200 279.4951 15.31891518211124
1 44928U 20001Q   23310.93103441 -.00006428  00000-0 -19454-3 0  9992
2 44928  53.0520 216.9540 0001298  92.3670 267.7479 15.31858620211205
1 44928U 20001Q   23311.12676879 -.00005216  00000-0 -15562-3 0  9994
2 44928  53.0521 216.0405 0001261  94.8335 265.2809 15.31855325211223
1 44928U 20001Q   23311.45298275 -.00002265  00000-0 -60904-4 0  9992
2 44928  53.0515 214.5211 0001205  78.8711 281.2424 15.31861561211288
1 44928U 20001Q   23311.45298275 -.00002265  00000-0 -60904-4 0  9992
2 44928  53.0515 214.5211 0001205  78.8711 281.2424 15.31861561211277
1 44928U 20001Q   23312.10540446  .00008837  00000-0  29450-3 0  9994
2 44928  53.0521 211.4725 0001233  80.3196 279.7944 15.31885876211382
1 44928U 20001Q   23312.10540446  .00008837  00000-0  29450-3 0  9994
2 44928  53.0521 211.4725 0001233  80.3196 279.7944 15.31885876211371
1 44928U 20001Q   23312.88830979  .00006549  00000-0  22128-3 0  9995
2 44928  53.0523 207.8186 0001696  62.3904 297.7268 15.31895464211501
1 44928U 20001Q   23313.01879148  .00000240  00000-0  19425-4 0  9991
2 44928  53.0518 207.2093 0001166  89.8908 270.2225 15.31886848211523
1 44928U 20001Q   23313.01879148  .00000240  00000-0  19425-4 0  9991
2 44928  53.0518 207.2093 0001166  89.8908 270.2225 15.31886848211512
1 44928U 20001Q   23313.93218647  .00007109  00000-0  23926-3 0  9994
2 44928  53.0517 202.9467 0001190  78.0637 282.0497 15.31883311211664
1 44928U 20001Q   23313.99742859  .00005447  00000-0  18613-3 0  9997
2 44928  53.0524 202.6388 0001281  80.1568 279.9577 15.31882198211665
1 44928U 20001Q   23314.38888387  .00002400  00000-0  88591-4 0  9997
2 44928  53.0518 200.8125 0001229  84.2445 275.8695 15.31879263211731
1 44928U 20001Q   23314.84558123  .00002390  00000-0  88268-4 0  9999
2 44928  53.0518 198.6805 0001214  86.8534 273.2605 15.31880266211795
1 44928U 20001Q   23314.91082331  .00002210  00000-0  82525-4 0  9991
2 44928  53.0518 198.3760 0001220  87.7305 272.3835 15.31880678211810
1 44928U 20001Q   23315.36752123  .00001685  00000-0  65722-4 0  9999
2 44928  53.0514 196.2438 0001207  80.5599 279.5537 15.31879877211880
1 44928U 20001Q   23315.95470380  .00001327  00000-0  54255-4 0  9998
2 44928  53.0519 193.5030 0001215  86.7791 273.3348 15.31879215211972
1 44928U 20001Q   23315.95470380  .00001327  00000-0  54255-4 0  9998
2 44928  53.0519 193.5030 0001215  86.7791 273.3348 15.31879215211961
1 44928U 20001Q   23316.93333917  .00001492  00000-0  59514-4 0  9997
2 44928  53.0530 188.9344 0001219  85.5410 274.5729 15.31883420212127
1 44928U 20001Q   23318.62964559  .00000437  00000-0  25728-4 0  9995
2 44928  53.0528 181.0151 0001235  83.0572 277.0569 15.31879821212371
1 44928U 20001Q   23318.89061523  .00000995  00000-0  43603-4 0  9994
2 44928  53.0536 179.7976 0001437  88.7993 271.3171 15.31880105212421
1 44928U 20001Q   23319.02109971  .00000934  00000-0  41660-4 0  9994
2 44928  53.0535 179.1883 0001423  88.8867 271.2296 15.31880376212446
